{
   "type":"FeatureCollection",
   "crs":{
      "type":"name",
      "properties":{
         "name":"urn:ogc:def:crs:OGC:1.3:CRS84"
      }
   },
   "source":"© GeoBasis-DE / BKG 2013 (Daten verändert)",
   "features":[
      {
         "type":"Feature",
         "properties":{
            "ABSCHNITT":"5/2",
            "ADE":6,
            "GF":4,
            "BSG":1,
            "RS":"091780116116",
            "AGS":"09178116",
            "SDV_RS":"091780116116",
            "GEN":"Au i.d. Hallertau",
            "BEZ":"Gemeinde",
            "IBZ":62,
            "BEM":"--",
            "NBD":"ja",
            "SN_L":"09",
            "SN_R":"1",
            "SN_K":"78",
            "SN_V1":"01",
            "SN_V2":"16",
            "SN_G":"116",
            "FK_S3":"R",
            "NUTS":"DE21B",
            "RS_0":"091780116116",
            "AGS_0":"09178116",
            "WSK":"2009/01/01",
            "DEBKG_ID":"DEBKGDL20000DYKU",
            "destatis":{
               "RS":"091780116116",
               "area":54.99,
               "population":6063,
               "population_m":3130,
               "population_w":2933,
               "population_density":110,
               "zip":"84072",
               "center_lon":"11,737675",
               "center_lat":"48,559014",
               "travel_key":"T24",
               "travel_desc":"Münchener Umland",
               "density_key":"03",
               "density_desc":"gering besiedelt"
            },
            "wikipedia":{
               "cid":"http://www.wikidata.org/entity/Q523939",
               "name":"Au in der Hallertau",
               "AGS":"09178116",
               "_licence_plate_code":"FS",
               "_official_website":"http://www.markt-au.de/",
               "_local_dialing_code":"08752",
               "_postal_code":"84072",
               "_image":"http://commons.wikimedia.org/wiki/Special:FilePath/Au%20in%20der%20Hallertau%20Ortsansicht.jpg",
               "_Facebook_Places_ID":"105522556147084"
            }
         },
         "geometry":
      },
      {
         "type":"Feature",
         "properties":{
            "ADE":6,
            "GF":4,
            "BSG":1,
            "RS":"091780120120",
            "AGS":"09178120",
            "SDV_RS":"091780120120",
            "GEN":"Eching",
            "ABSCHNITT":"2/1",
            "BEZ":"Gemeinde",
            "IBZ":62,
            "BEM":"--",
            "NBD":"ja",
            "SN_L":"09",
            "SN_R":"1",
            "SN_K":"78",
            "SN_V1":"01",
            "SN_V2":"20",
            "SN_G":"120",
            "FK_S3":"R",
            "NUTS":"DE21B",
            "RS_0":"091780120120",
            "AGS_0":"09178120",
            "WSK":"2009/01/01",
            "DEBKG_ID":"DEBKGDL20000E6WT",
            "destatis":{
               "RS":"091780120120",
               "area":37.32,
               "population":14010,
               "population_m":7087,
               "population_w":6923,
               "population_density":375,
               "zip":"85386",
               "center_lon":"11,623733",
               "center_lat":"48,297531",
               "travel_key":"T24",
               "travel_desc":"Münchener Umland",
               "density_key":"02",
               "density_desc":"mittlere Besiedlungsdichte"
            },
            "wikipedia":{
               "cid":"http://www.wikidata.org/entity/Q254001",
               "name":"Eching",
               "AGS":"09178120",
               "_licence_plate_code":"FS",
               "_official_website":"http://www.eching.de/",
               "_local_dialing_code":"089",
               "_postal_code":"85386",
               "_image":"http://commons.wikimedia.org/wiki/Special:FilePath/Eching%20%28Landkreis%20Freising%29%2C%20das%20Rathaus.jpg",
               "_head_of_government":"http://www.wikidata.org/entity/Q58333894"
            }
         },
         "geometry":
      },
      {
         "type":"Feature",
         "properties":{
            "ADE":6,
            "GF":4,
            "BSG":1,
            "RS":"091780122122",
            "AGS":"09178122",
            "SDV_RS":"091780122122",
            "GEN":"Rudelzhausen",
            "ABSCHNITT":"5/2",
            "BEZ":"Gemeinde",
            "IBZ":62,
            "BEM":"--",
            "NBD":"ja",
            "SN_L":"09",
            "SN_R":"1",
            "SN_K":"78",
            "SN_V1":"01",
            "SN_V2":"22",
            "SN_G":"122",
            "FK_S3":"R",
            "NUTS":"DE21B",
            "RS_0":"091780122122",
            "AGS_0":"09178122",
            "WSK":"2009/01/01",
            "DEBKG_ID":"DEBKGDL20000E5ZO",
            "destatis":{
               "RS":"091780122122",
               "area":40.8,
               "population":3416,
               "population_m":1745,
               "population_w":1671,
               "population_density":84,
               "zip":"84104",
               "center_lon":"11,767661",
               "center_lat":"48,590008",
               "travel_key":"T24",
               "travel_desc":"Münchener Umland",
               "density_key":"03",
               "density_desc":"gering besiedelt"
            },
            "wikipedia":{
               "cid":"http://www.wikidata.org/entity/Q507874",
               "name":"Rudelzhausen",
               "AGS":"09178122",
               "_licence_plate_code":"FS",
               "_official_website":"http://www.rudelzhausen.org/",
               "_local_dialing_code":"08752",
               "_postal_code":"84104",
               "_image":"http://commons.wikimedia.org/wiki/Special:FilePath/Tegernbach%20Pfarrkirche%20Mari%C3%A4%20Himmelfahrt.jpg",
               "_head_of_government":"http://www.wikidata.org/entity/Q58333895"
            }
         },
         "geometry":
      },
      {
         "type":"Feature",
         "properties":{
            "ADE":6,
            "GF":4,
            "BSG":1,
            "RS":"091780123123",
            "AGS":"09178123",
            "SDV_RS":"091780123123",
            "GEN":"Fahrenzhausen",
            "ABSCHNITT":"2/1",
            "BEZ":"Gemeinde",
            "IBZ":62,
            "BEM":"--",
            "NBD":"ja",
            "SN_L":"09",
            "SN_R":"1",
            "SN_K":"78",
            "SN_V1":"01",
            "SN_V2":"23",
            "SN_G":"123",
            "FK_S3":"R",
            "NUTS":"DE21B",
            "RS_0":"091780123123",
            "AGS_0":"09178123",
            "WSK":"2009/01/01",
            "DEBKG_ID":"DEBKGDL20000E611",
            "destatis":{
               "RS":"091780123123",
               "area":37.64,
               "population":5041,
               "population_m":2624,
               "population_w":2417,
               "population_density":134,
               "zip":"85777",
               "center_lon":"11,554462",
               "center_lat":"48,354613",
               "travel_key":"T24",
               "travel_desc":"Münchener Umland",
               "density_key":"03",
               "density_desc":"gering besiedelt"
            },
            "wikipedia":{
               "cid":"http://www.wikidata.org/entity/Q506233",
               "name":"Fahrenzhausen",
               "AGS":"09178123",
               "_licence_plate_code":"FS",
               "_official_website":"http://www.fahrenzhausen.de",
               "_local_dialing_code":"08133",
               "_postal_code":"85777",
               "_image":"http://commons.wikimedia.org/wiki/Special:FilePath/Fahrenzhausen-Rathaus.JPG",
               "_head_of_government":"http://www.wikidata.org/entity/Q58333896"
            }
         },
         "geometry":
      },
      {
         "type":"Feature",
         "properties":{
            "ADE":6,
            "GF":4,
            "BSG":1,
            "RS":"091780124124",
            "AGS":"09178124",
            "SDV_RS":"091780124124",
            "GEN":"Freising",
            "ABSCHNITT":"6",
            "BEZ":"Stadt",
            "IBZ":61,
            "BEM":"--",
            "NBD":"ja",
            "SN_L":"09",
            "SN_R":"1",
            "SN_K":"78",
            "SN_V1":"01",
            "SN_V2":"24",
            "SN_G":"124",
            "FK_S3":"R",
            "NUTS":"DE21B",
            "RS_0":"091780124124",
            "AGS_0":"09178124",
            "WSK":"2009/01/01",
            "DEBKG_ID":"DEBKGDL20000E3F6",
            "destatis":{
               "RS":"091780124124",
               "area":88.59,
               "population":48634,
               "population_m":24496,
               "population_w":24138,
               "population_density":549,
               "zip":"85350",
               "center_lon":"11,748361",
               "center_lat":"48,403627",
               "travel_key":"T24",
               "travel_desc":"Münchener Umland",
               "density_key":"02",
               "density_desc":"mittlere Besiedlungsdichte"
            }
         },
         "geometry":
      },
      {
         "type":"Feature",
         "properties":{
            "ADE":6,
            "GF":4,
            "BSG":1,
            "RS":"091780130130",
            "AGS":"09178130",
            "SDV_RS":"091780130130",
            "GEN":"Hallbergmoos",
            "ABSCHNITT":"2/2",
            "BEZ":"Gemeinde",
            "IBZ":62,
            "BEM":"--",
            "NBD":"ja",
            "SN_L":"09",
            "SN_R":"1",
            "SN_K":"78",
            "SN_V1":"01",
            "SN_V2":"30",
            "SN_G":"130",
            "FK_S3":"R",
            "NUTS":"DE21B",
            "RS_0":"091780130130",
            "AGS_0":"09178130",
            "WSK":"2009/01/01",
            "DEBKG_ID":"DEBKGDL20000E17P",
            "destatis":{
               "RS":"091780130130",
               "area":35.09,
               "population":10953,
               "population_m":5673,
               "population_w":5280,
               "population_density":312,
               "zip":"85399",
               "center_lon":"11,749896",
               "center_lat":"48,324369",
               "travel_key":"T24",
               "travel_desc":"Münchener Umland",
               "density_key":"02",
               "density_desc":"mittlere Besiedlungsdichte"
            },
            "wikipedia":{
               "cid":"http://www.wikidata.org/entity/Q285955",
               "name":"Hallbergmoos",
               "AGS":"09178130",
               "_licence_plate_code":"FS",
               "_official_website":"http://www.hallbergmoos.de",
               "_local_dialing_code":"0811",
               "_postal_code":"85396–85399",
               "_image":"http://commons.wikimedia.org/wiki/Special:FilePath/Hallbergmoos.JPG",
               "_head_of_government":"http://www.wikidata.org/entity/Q58333900"
            }
         },
         "geometry":
      },
      {
         "type":"Feature",
         "properties":{
            "ADE":6,
            "GF":4,
            "BSG":1,
            "RS":"091780133133",
            "AGS":"09178133",
            "SDV_RS":"091780133133",
            "GEN":"Hohenkammer",
            "ABSCHNITT":"3/2",
            "BEZ":"Gemeinde",
            "IBZ":62,
            "BEM":"--",
            "NBD":"ja",
            "SN_L":"09",
            "SN_R":"1",
            "SN_K":"78",
            "SN_V1":"01",
            "SN_V2":"33",
            "SN_G":"133",
            "FK_S3":"R",
            "NUTS":"DE21B",
            "RS_0":"091780133133",
            "AGS_0":"09178133",
            "WSK":"2009/01/01",
            "DEBKG_ID":"DEBKGDL20000E172",
            "destatis":{
               "RS":"091780133133",
               "area":25.74,
               "population":2662,
               "population_m":1398,
               "population_w":1264,
               "population_density":103,
               "zip":"85411",
               "center_lon":"11,523555",
               "center_lat":"48,4241",
               "travel_key":"T24",
               "travel_desc":"Münchener Umland",
               "density_key":"03",
               "density_desc":"gering besiedelt"
            },
            "wikipedia":{
               "cid":"http://www.wikidata.org/entity/Q506180",
               "name":"Hohenkammer",
               "AGS":"09178133",
               "_licence_plate_code":"FS",
               "_official_website":"http://www.hohenkammer.de",
               "_local_dialing_code":"08137",
               "_postal_code":"85411",
               "_image":"http://commons.wikimedia.org/wiki/Special:FilePath/Pfarrkirche%20St.%20Johannes%20Evangelist%20in%20Hohenkammer.jpg",
               "_head_of_government":"http://www.wikidata.org/entity/Q58333902"
            }
         },
         "geometry":
      },
      {
         "type":"Feature",
         "properties":{
            "ADE":6,
            "GF":4,
            "BSG":1,
            "RS":"091780136136",
            "AGS":"09178136",
            "SDV_RS":"091780136136",
            "GEN":"Kirchdorf a.d. Amper",
            "ABSCHNITT":"3/1",
            "BEZ":"Gemeinde",
            "IBZ":62,
            "BEM":"--",
            "NBD":"ja",
            "SN_L":"09",
            "SN_R":"1",
            "SN_K":"78",
            "SN_V1":"01",
            "SN_V2":"36",
            "SN_G":"136",
            "FK_S3":"R",
            "NUTS":"DE21B",
            "RS_0":"091780136136",
            "AGS_0":"09178136",
            "WSK":"2009/01/01",
            "DEBKG_ID":"DEBKGDL20000E1DA",
            "destatis":{
               "RS":"091780136136",
               "area":32.97,
               "population":3235,
               "population_m":1720,
               "population_w":1515,
               "population_density":98,
               "zip":"85414",
               "center_lon":"11,651933",
               "center_lat":"48,4583",
               "travel_key":"T24",
               "travel_desc":"Münchener Umland",
               "density_key":"03",
               "density_desc":"gering besiedelt"
            },
            "wikipedia":{
               "cid":"http://www.wikidata.org/entity/Q506009",
               "name":"Kirchdorf an der Amper",
               "AGS":"09178136",
               "_licence_plate_code":"FS",
               "_official_website":"http://www.gemeinde-kirchdorf-amper.de",
               "_local_dialing_code":"08166",
               "_postal_code":"85414",
               "_image":"http://commons.wikimedia.org/wiki/Special:FilePath/Wippenhausen%20Pfarrhaus.JPG",
               "_head_of_government":"http://www.wikidata.org/entity/Q58333903"
            }
         },
         "geometry":
      },
      {
         "type":"Feature",
         "properties":{
            "ADE":6,
            "GF":4,
            "BSG":1,
            "RS":"091780137137",
            "AGS":"09178137",
            "SDV_RS":"091780137137",
            "GEN":"Kranzberg",
            "ABSCHNITT":"3/2",
            "BEZ":"Gemeinde",
            "IBZ":62,
            "BEM":"--",
            "NBD":"ja",
            "SN_L":"09",
            "SN_R":"1",
            "SN_K":"78",
            "SN_V1":"01",
            "SN_V2":"37",
            "SN_G":"137",
            "FK_S3":"R",
            "NUTS":"DE21B",
            "RS_0":"091780137137",
            "AGS_0":"09178137",
            "WSK":"2009/01/01",
            "DEBKG_ID":"DEBKGDL20000DW3N",
            "destatis":{
               "RS":"091780137137",
               "area":39.5,
               "population":4175,
               "population_m":2109,
               "population_w":2066,
               "population_density":106,
               "zip":"85402",
               "center_lon":"11,616607",
               "center_lat":"48,406009",
               "travel_key":"T24",
               "travel_desc":"Münchener Umland",
               "density_key":"03",
               "density_desc":"gering besiedelt"
            },
            "wikipedia":{
               "cid":"http://www.wikidata.org/entity/Q506248",
               "name":"Kranzberg",
               "AGS":"09178137",
               "_licence_plate_code":"FS",
               "_official_website":"http://www.kranzberg.de",
               "_local_dialing_code":"08166",
               "_postal_code":"85402",
               "_image":"http://commons.wikimedia.org/wiki/Special:FilePath/Fischerwirt%20kranzberg.jpg",
               "_head_of_government":"http://www.wikidata.org/entity/Q58333904"
            }
         },
         "geometry":
      },
      {
         "type":"Feature",
         "properties":{
            "ADE":6,
            "GF":4,
            "BSG":1,
            "RS":"091780138138",
            "AGS":"09178138",
            "SDV_RS":"091780138138",
            "GEN":"Langenbach",
            "ABSCHNITT":"4/1",
            "BEZ":"Gemeinde",
            "IBZ":62,
            "BEM":"--",
            "NBD":"ja",
            "SN_L":"09",
            "SN_R":"1",
            "SN_K":"78",
            "SN_V1":"01",
            "SN_V2":"38",
            "SN_G":"138",
            "FK_S3":"R",
            "NUTS":"DE21B",
            "RS_0":"091780138138",
            "AGS_0":"09178138",
            "WSK":"2009/01/01",
            "DEBKG_ID":"DEBKGDL20000DYME",
            "destatis":{
               "RS":"091780138138",
               "area":26.89,
               "population":3991,
               "population_m":2053,
               "population_w":1938,
               "population_density":148,
               "zip":"85416",
               "center_lon":"11,857356",
               "center_lat":"48,440416",
               "travel_key":"T24",
               "travel_desc":"Münchener Umland",
               "density_key":"03",
               "density_desc":"gering besiedelt"
            },
            "wikipedia":{
               "cid":"http://www.wikidata.org/entity/Q532907",
               "name":"Langenbach",
               "AGS":"09178138",
               "_licence_plate_code":"FS",
               "_official_website":"http://www.gemeinde-langenbach.de",
               "_local_dialing_code":"08761",
               "_postal_code":"85416",
               "_image":"http://commons.wikimedia.org/wiki/Special:FilePath/Bridge%20langenbach.JPG",
               "_head_of_government":"http://www.wikidata.org/entity/Q58333905"
            }
         },
         "geometry":
      },
      {
         "type":"Feature",
         "properties":{
            "ADE":6,
            "GF":4,
            "BSG":1,
            "RS":"091780140140",
            "AGS":"09178140",
            "SDV_RS":"091780140140",
            "GEN":"Marzling",
            "ABSCHNITT":"4/1",
            "BEZ":"Gemeinde",
            "IBZ":62,
            "BEM":"--",
            "NBD":"ja",
            "SN_L":"09",
            "SN_R":"1",
            "SN_K":"78",
            "SN_V1":"01",
            "SN_V2":"40",
            "SN_G":"140",
            "FK_S3":"R",
            "NUTS":"DE21B",
            "RS_0":"091780140140",
            "AGS_0":"09178140",
            "WSK":"2009/01/01",
            "DEBKG_ID":"DEBKGDL20000E3F5",
            "destatis":{
               "RS":"091780140140",
               "area":20.5,
               "population":3238,
               "population_m":1662,
               "population_w":1576,
               "population_density":158,
               "zip":"85417",
               "center_lon":"11,793717",
               "center_lat":"48,410488",
               "travel_key":"T24",
               "travel_desc":"Münchener Umland",
               "density_key":"03",
               "density_desc":"gering besiedelt"
            },
            "wikipedia":{
               "cid":"http://www.wikidata.org/entity/Q506502",
               "name":"Marzling",
               "AGS":"09178140",
               "_licence_plate_code":"FS",
               "_official_website":"http://www.marzling.de",
               "_local_dialing_code":"08161",
               "_postal_code":"85417",
               "_image":"http://commons.wikimedia.org/wiki/Special:FilePath/Marzling.JPG",
               "_head_of_government":"http://www.wikidata.org/entity/Q58333906"
            }
         },
         "geometry":
      },
      {
         "type":"Feature",
         "properties":{
            "ADE":6,
            "GF":4,
            "BSG":1,
            "RS":"091780143143",
            "AGS":"09178143",
            "SDV_RS":"091780143143",
            "GEN":"Moosburg a.d. Isar",
            "ABSCHNITT":"4/1",
            "BEZ":"Stadt",
            "IBZ":61,
            "BEM":"--",
            "NBD":"ja",
            "SN_L":"09",
            "SN_R":"1",
            "SN_K":"78",
            "SN_V1":"01",
            "SN_V2":"43",
            "SN_G":"143",
            "FK_S3":"R",
            "NUTS":"DE21B",
            "RS_0":"091780143143",
            "AGS_0":"09178143",
            "WSK":"2009/01/01",
            "DEBKG_ID":"DEBKGDL20000E4B0",
            "destatis":{
               "RS":"091780143143",
               "area":43.85,
               "population":18510,
               "population_m":9221,
               "population_w":9289,
               "population_density":422,
               "zip":"85362",
               "center_lon":"11,935504",
               "center_lat":"48,467702",
               "travel_key":"T24",
               "travel_desc":"Münchener Umland",
               "density_key":"02",
               "density_desc":"mittlere Besiedlungsdichte"
            }
         },
         "geometry":
      },
      {
         "type":"Feature",
         "properties":{
            "ADE":6,
            "GF":4,
            "BSG":1,
            "RS":"091780144144",
            "AGS":"09178144",
            "SDV_RS":"091780144144",
            "GEN":"Nandlstadt",
            "ABSCHNITT":"5/1",
            "BEZ":"Gemeinde",
            "IBZ":62,
            "BEM":"--",
            "NBD":"ja",
            "SN_L":"09",
            "SN_R":"1",
            "SN_K":"78",
            "SN_V1":"01",
            "SN_V2":"44",
            "SN_G":"144",
            "FK_S3":"R",
            "NUTS":"DE21B",
            "RS_0":"091780144144",
            "AGS_0":"09178144",
            "WSK":"2009/01/01",
            "DEBKG_ID":"DEBKGDL20000E0F5",
            "destatis":{
               "RS":"091780144144",
               "area":34.3,
               "population":5318,
               "population_m":2694,
               "population_w":2624,
               "population_density":155,
               "zip":"85405",
               "center_lon":"11,805491",
               "center_lat":"48,537446",
               "travel_key":"T24",
               "travel_desc":"Münchener Umland",
               "density_key":"03",
               "density_desc":"gering besiedelt"
            },
            "wikipedia":{
               "cid":"http://www.wikidata.org/entity/Q503330",
               "name":"Nandlstadt",
               "AGS":"09178144",
               "_licence_plate_code":"FS",
               "_official_website":"http://www.markt-nandlstadt.de",
               "_local_dialing_code":"08756",
               "_postal_code":"85405",
               "_image":"http://commons.wikimedia.org/wiki/Special:FilePath/Nandlstadt%20St.%20Martin%202007-02.jpg"
            }
         },
         "geometry":
      },
      {
         "type":"Feature",
         "properties":{
            "ADE":6,
            "GF":4,
            "BSG":1,
            "RS":"091780145145",
            "AGS":"09178145",
            "SDV_RS":"091780145145",
            "GEN":"Neufahrn b. Freising",
            "ABSCHNITT":"2/2",
            "BEZ":"Gemeinde",
            "IBZ":62,
            "BEM":"--",
            "NBD":"ja",
            "SN_L":"09",
            "SN_R":"1",
            "SN_K":"78",
            "SN_V1":"01",
            "SN_V2":"45",
            "SN_G":"145",
            "FK_S3":"R",
            "NUTS":"DE21B",
            "RS_0":"091780145145",
            "AGS_0":"09178145",
            "WSK":"2009/01/01",
            "DEBKG_ID":"DEBKGDL20000E5SW",
            "destatis":{
               "RS":"091780145145",
               "area":45.54,
               "population":20223,
               "population_m":10406,
               "population_w":9817,
               "population_density":444,
               "zip":"85371",
               "center_lon":"11,66279",
               "center_lat":"48,316081",
               "travel_key":"T24",
               "travel_desc":"Münchener Umland",
               "density_key":"02",
               "density_desc":"mittlere Besiedlungsdichte"
            },
            "wikipedia":{
               "cid":"http://www.wikidata.org/entity/Q31658",
               "name":"Neufahrn bei Freising",
               "AGS":"09178145",
               "_licence_plate_code":"FS",
               "_official_website":"https://www.neufahrn.de/",
               "_local_dialing_code":"08165",
               "_postal_code":"85369–85376",
               "_image":"http://commons.wikimedia.org/wiki/Special:FilePath/Neufahrn%20bei%20Freising.JPG",
               "_head_of_government":"http://www.wikidata.org/entity/Q58333907"
            }
         },
         "geometry":
      },
      {
         "type":"Feature",
         "properties":{
            "ADE":6,
            "GF":4,
            "BSG":1,
            "RS":"091785127113",
            "AGS":"09178113",
            "SDV_RS":"091785127113",
            "GEN":"Allershausen",
            "ABSCHNITT":"3/2",
            "BEZ":"Gemeinde",
            "IBZ":64,
            "BEM":"gemeinschaftsangehörig",
            "NBD":"ja",
            "SN_L":"09",
            "SN_R":"1",
            "SN_K":"78",
            "SN_V1":"51",
            "SN_V2":"27",
            "SN_G":"113",
            "FK_S3":"R",
            "NUTS":"DE21B",
            "RS_0":"091785127113",
            "AGS_0":"09178113",
            "WSK":"1978/05/01",
            "DEBKG_ID":"DEBKGDL20000E1PK",
            "destatis":{
               "RS":"091785127113",
               "area":26.55,
               "population":5847,
               "population_m":3127,
               "population_w":2720,
               "population_density":220,
               "zip":"85391",
               "center_lon":"11,598275",
               "center_lat":"48,429879",
               "travel_key":"T24",
               "travel_desc":"Münchener Umland",
               "density_key":"03",
               "density_desc":"gering besiedelt"
            },
            "wikipedia":{
               "cid":"http://www.wikidata.org/entity/Q218427",
               "name":"Allershausen",
               "AGS":"09178113",
               "_licence_plate_code":"FS",
               "_official_website":"http://www.allershausen.de/",
               "_local_dialing_code":"08166",
               "_postal_code":"85391",
               "_image":"http://commons.wikimedia.org/wiki/Special:FilePath/Allershausen%2C%20Pfarrkirche%20St.Josef.jpg",
               "_head_of_government":"http://www.wikidata.org/entity/Q58333892"
            }
         },
         "geometry":
      },
      {
         "type":"Feature",
         "properties":{
            "ADE":6,
            "GF":4,
            "BSG":1,
            "RS":"091785127150",
            "AGS":"09178150",
            "SDV_RS":"091785127150",
            "GEN":"Paunzhausen",
            "ABSCHNITT":"3/1",
            "BEZ":"Gemeinde",
            "IBZ":64,
            "BEM":"gemeinschaftsangehörig",
            "NBD":"ja",
            "SN_L":"09",
            "SN_R":"1",
            "SN_K":"78",
            "SN_V1":"51",
            "SN_V2":"27",
            "SN_G":"150",
            "FK_S3":"R",
            "NUTS":"DE21B",
            "RS_0":"091785127150",
            "AGS_0":"09178150",
            "WSK":"1978/05/01",
            "DEBKG_ID":"DEBKGDL20000E1QD",
            "destatis":{
               "RS":"091785127150",
               "area":12.74,
               "population":1497,
               "population_m":758,
               "population_w":739,
               "population_density":118,
               "zip":"85307",
               "center_lon":"11,565783",
               "center_lat":"48,47413",
               "travel_key":"T24",
               "travel_desc":"Münchener Umland",
               "density_key":"03",
               "density_desc":"gering besiedelt"
            },
            "wikipedia":{
               "cid":"http://www.wikidata.org/entity/Q506003",
               "name":"Paunzhausen",
               "AGS":"09178150",
               "_licence_plate_code":"FS",
               "_official_website":"http://www.paunzhausen.de",
               "_local_dialing_code":"08444",
               "_postal_code":"85307",
               "_image":"http://commons.wikimedia.org/wiki/Special:FilePath/Johanneck01a.jpg",
               "_head_of_government":"http://www.wikidata.org/entity/Q58333908"
            }
         },
         "geometry":
      },
      {
         "type":"Feature",
         "properties":{
            "ADE":6,
            "GF":4,
            "BSG":1,
            "RS":"091785129125",
            "AGS":"09178125",
            "SDV_RS":"091785129125",
            "GEN":"Gammelsdorf",
            "ABSCHNITT":"4/2",
            "BEZ":"Gemeinde",
            "IBZ":64,
            "BEM":"gemeinschaftsangehörig",
            "NBD":"ja",
            "SN_L":"09",
            "SN_R":"1",
            "SN_K":"78",
            "SN_V1":"51",
            "SN_V2":"29",
            "SN_G":"125",
            "FK_S3":"R",
            "NUTS":"DE21B",
            "RS_0":"091785129125",
            "AGS_0":"09178125",
            "WSK":"1978/05/01",
            "DEBKG_ID":"DEBKGDL20000E3RM",
            "destatis":{
               "RS":"091785129125",
               "area":21.62,
               "population":1469,
               "population_m":782,
               "population_w":687,
               "population_density":68,
               "zip":"85408",
               "center_lon":"11,949324",
               "center_lat":"48,556063",
               "travel_key":"T24",
               "travel_desc":"Münchener Umland",
               "density_key":"03",
               "density_desc":"gering besiedelt"
            },
            "wikipedia":{
               "cid":"http://www.wikidata.org/entity/Q627451",
               "name":"Gammelsdorf",
               "AGS":"09178125",
               "_licence_plate_code":"FS",
               "_official_website":"http://www.gemeinde-gammelsdorf.de",
               "_local_dialing_code":"08766",
               "_postal_code":"85408",
               "_image":"http://commons.wikimedia.org/wiki/Special:FilePath/Reichersdorf%20Kapelle.jpg",
               "_head_of_government":"http://www.wikidata.org/entity/Q58333898"
            }
         },
         "geometry":
      },
      {
         "type":"Feature",
         "properties":{
            "ADE":6,
            "GF":4,
            "BSG":1,
            "RS":"091785129132",
            "AGS":"09178132",
            "SDV_RS":"091785129132",
            "GEN":"Hörgertshausen",
            "ABSCHNITT":"4/2",
            "BEZ":"Gemeinde",
            "IBZ":64,
            "BEM":"gemeinschaftsangehörig",
            "NBD":"ja",
            "SN_L":"09",
            "SN_R":"1",
            "SN_K":"78",
            "SN_V1":"51",
            "SN_V2":"29",
            "SN_G":"132",
            "FK_S3":"R",
            "NUTS":"DE21B",
            "RS_0":"091785129132",
            "AGS_0":"09178132",
            "WSK":"1978/05/01",
            "DEBKG_ID":"DEBKGDL20000E2F0",
            "destatis":{
               "RS":"091785129132",
               "area":21.48,
               "population":1968,
               "population_m":990,
               "population_w":978,
               "population_density":92,
               "zip":"85413",
               "center_lon":"11,866009",
               "center_lat":"48,549214",
               "travel_key":"T24",
               "travel_desc":"Münchener Umland",
               "density_key":"03",
               "density_desc":"gering besiedelt"
            },
            "wikipedia":{
               "cid":"http://www.wikidata.org/entity/Q506541",
               "name":"Hörgertshausen",
               "AGS":"09178132",
               "_licence_plate_code":"FS",
               "_official_website":"http://www.gemeinde-hoergertshausen.de",
               "_local_dialing_code":"08764",
               "_postal_code":"85413",
               "_image":"http://commons.wikimedia.org/wiki/Special:FilePath/H%C3%B6rgertshausen%20Pfarrkirche.jpg",
               "_head_of_government":"http://www.wikidata.org/entity/Q58333901"
            }
         },
         "geometry":
      },
      {
         "type":"Feature",
         "properties":{
            "ADE":6,
            "GF":4,
            "BSG":1,
            "RS":"091785130115",
            "AGS":"09178115",
            "SDV_RS":"091785130115",
            "GEN":"Attenkirchen",
            "ABSCHNITT":"5/1",
            "BEZ":"Gemeinde",
            "IBZ":64,
            "BEM":"gemeinschaftsangehörig",
            "NBD":"ja",
            "SN_L":"09",
            "SN_R":"1",
            "SN_K":"78",
            "SN_V1":"51",
            "SN_V2":"30",
            "SN_G":"115",
            "FK_S3":"R",
            "NUTS":"DE21B",
            "RS_0":"091785130115",
            "AGS_0":"09178115",
            "WSK":"1978/05/01",
            "DEBKG_ID":"DEBKGDL20000DW3G",
            "destatis":{
               "RS":"091785130115",
               "area":16.1,
               "population":2761,
               "population_m":1392,
               "population_w":1369,
               "population_density":171,
               "zip":"85395",
               "center_lon":"11,758765",
               "center_lat":"48,506366",
               "travel_key":"T24",
               "travel_desc":"Münchener Umland",
               "density_key":"03",
               "density_desc":"gering besiedelt"
            },
            "wikipedia":{
               "cid":"http://www.wikidata.org/entity/Q523922",
               "name":"Attenkirchen",
               "AGS":"09178115",
               "_licence_plate_code":"FS",
               "_official_website":"http://www.attenkirchen.de/",
               "_local_dialing_code":"08168",
               "_postal_code":"85395",
               "_image":"http://commons.wikimedia.org/wiki/Special:FilePath/Blick%20auf%20Attenkirchen.JPG",
               "_head_of_government":"http://www.wikidata.org/entity/Q58333893"
            }
         },
         "geometry":
      },
      {
         "type":"Feature",
         "properties":{
            "ADE":6,
            "GF":4,
            "BSG":1,
            "RS":"091785130129",
            "AGS":"09178129",
            "SDV_RS":"091785130129",
            "GEN":"Haag a.d. Amper",
            "ABSCHNITT":"4/1",
            "BEZ":"Gemeinde",
            "IBZ":64,
            "BEM":"gemeinschaftsangehörig",
            "NBD":"ja",
            "SN_L":"09",
            "SN_R":"1",
            "SN_K":"78",
            "SN_V1":"51",
            "SN_V2":"30",
            "SN_G":"129",
            "FK_S3":"R",
            "NUTS":"DE21B",
            "RS_0":"091785130129",
            "AGS_0":"09178129",
            "WSK":"1978/05/01",
            "DEBKG_ID":"DEBKGDL20000DYLD",
            "destatis":{
               "RS":"091785130129",
               "area":21.7,
               "population":2960,
               "population_m":1521,
               "population_w":1439,
               "population_density":136,
               "zip":"85406",
               "center_lon":"11,832861",
               "center_lat":"48,458593",
               "travel_key":"T24",
               "travel_desc":"Münchener Umland",
               "density_key":"03",
               "density_desc":"gering besiedelt"
            },
            "wikipedia":{
               "cid":"http://www.wikidata.org/entity/Q517447",
               "name":"Haag an der Amper",
               "AGS":"09178129",
               "_licence_plate_code":"FS",
               "_official_website":"http://www.gemeinde-haag.de",
               "_local_dialing_code":"08167",
               "_postal_code":"85410",
               "_image":"http://commons.wikimedia.org/wiki/Special:FilePath/Haag%20an%20der%20Amper%202015.jpg",
               "_head_of_government":"http://www.wikidata.org/entity/Q58333899"
            }
         },
         "geometry":
      },
      {
         "type":"Feature",
         "properties":{
            "ADE":6,
            "GF":4,
            "BSG":1,
            "RS":"091785130156",
            "AGS":"09178156",
            "SDV_RS":"091785130156",
            "GEN":"Wolfersdorf",
            "ABSCHNITT":"3/1",
            "BEZ":"Gemeinde",
            "IBZ":64,
            "BEM":"gemeinschaftsangehörig",
            "NBD":"ja",
            "SN_L":"09",
            "SN_R":"1",
            "SN_K":"78",
            "SN_V1":"51",
            "SN_V2":"30",
            "SN_G":"156",
            "FK_S3":"R",
            "NUTS":"DE21B",
            "RS_0":"091785130156",
            "AGS_0":"09178156",
            "WSK":"1978/05/01",
            "DEBKG_ID":"DEBKGDL20000DYMJ",
            "destatis":{
               "RS":"091785130156",
               "area":26.06,
               "population":2600,
               "population_m":1350,
               "population_w":1250,
               "population_density":100,
               "zip":"85395",
               "center_lon":"11,708788",
               "center_lat":"48,478796",
               "travel_key":"T24",
               "travel_desc":"Münchener Umland",
               "density_key":"03",
               "density_desc":"gering besiedelt"
            },
            "wikipedia":{
               "cid":"http://www.wikidata.org/entity/Q627586",
               "name":"Wolfersdorf",
               "AGS":"09178156",
               "_licence_plate_code":"FS",
               "_official_website":"http://www.gemeinde-wolfersdorf.de",
               "_local_dialing_code":"08168",
               "_postal_code":"85395",
               "_image":"http://commons.wikimedia.org/wiki/Special:FilePath/St.Jakobus-Oberhaindlfing.jpg",
               "_head_of_government":"http://www.wikidata.org/entity/Q58333909"
            }
         },
         "geometry":
      },
      {
         "type":"Feature",
         "properties":{
            "ADE":6,
            "GF":4,
            "BSG":1,
            "RS":"091785130157",
            "AGS":"09178157",
            "SDV_RS":"091785130157",
            "GEN":"Zolling",
            "ABSCHNITT":"5/1",
            "BEZ":"Gemeinde",
            "IBZ":64,
            "BEM":"gemeinschaftsangehörig",
            "NBD":"ja",
            "SN_L":"09",
            "SN_R":"1",
            "SN_K":"78",
            "SN_V1":"51",
            "SN_V2":"30",
            "SN_G":"157",
            "FK_S3":"R",
            "NUTS":"DE21B",
            "RS_0":"091785130157",
            "AGS_0":"09178157",
            "WSK":"1978/05/01",
            "DEBKG_ID":"DEBKGDL20000E1DE",
            "destatis":{
               "RS":"091785130157",
               "area":34.53,
               "population":4886,
               "population_m":2519,
               "population_w":2367,
               "population_density":142,
               "zip":"85406",
               "center_lon":"11,771294",
               "center_lat":"48,451521",
               "travel_key":"T24",
               "travel_desc":"Münchener Umland",
               "density_key":"03",
               "density_desc":"gering besiedelt"
            },
            "wikipedia":{
               "cid":"http://www.wikidata.org/entity/Q218693",
               "name":"Zolling",
               "AGS":"09178157",
               "_licence_plate_code":"FS",
               "_official_website":"http://www.zolling.de",
               "_local_dialing_code":"08167",
               "_postal_code":"85406",
               "_image":"http://commons.wikimedia.org/wiki/Special:FilePath/Zolling%20Dorfplatz%202015.jpg",
               "_head_of_government":"http://www.wikidata.org/entity/Q58333910"
            }
         },
         "geometry":
      }
   ]
}